{"fetched_at":"2026-03-30T13:17:50Z","count":15418,"tles":[{"name":"STARLINK-33808","line1":"1 63767U 25089S   26087.88781084  .00024823  00000+0  90794-3 0  9990","line2":"2 63767  42.9979 296.8153 0001868 263.1593  96.9046 15.27601165 51898","category":"Starlink"}]}